PHISAT 2                
1 60470U 24149C   26068.78834181  .00008925  00000+0  31421-3 0  9996
2 60470  97.3806 148.6498 0001175 168.6230 191.5037 15.29548631 86792
STARLINK-32926          
1 63025U 25032W   26068.82148411  .00039474  00000+0  14344-2 0  9993
2 63025  43.0004 335.0020 0001834 348.5664  11.5146 15.27624607 60648
